STARLINK-31152          
1 58734U 24005G   26068.46665831 -.00003519  00000+0 -12158-3 0  9998
2 58734  42.9985 220.6599 0001346 280.6789  79.3910 15.26736091120410
VSP RF A1               
1 59135U 24043AP  26066.03073316  .00000577  00000+0  25199-4 0  9997
2 59135  97.5247 201.5379 0009431 234.6315 125.4042 15.26179596111403
